OBJECT B                
1 51825U 22019B   24351.92554223  .00022274  00000+0  74978-3 0  9996
2 51825  97.4095  61.8538 0011132 318.2996  41.7396 15.30731266155098
